ONEWEB-0568             
1 56062U 23043S   25335.79882735  .00000054  00000+0  10762-3 0  9995
2 56062  87.9039 268.0744 0001469  74.2115 285.9178 13.16594098133001
ONEWEB-0574             
1 56063U 23043T   25335.85159068 -.00000002  00000+0 -35856-4 0  9996
2 56063  87.9204 283.3238 0001818  84.9546 275.1795 13.21824642132202
ONEWEB-0575             
1 56064U 23043U   25335.79249709  .00000063  00000+0  13045-3 0  9992
2 56064  87.9034 268.0762 0001557  88.5085 271.6224 13.16594365132998
ONEWEB-0576             
1 56065U 23043V   25335.84948463  .00000220  00000+0  54074-3 0  9994
2 56065  87.9040 268.0652 0001615  82.7776 277.3538 13.16589720132992
ONEWEB-0577             
1 56066U 23043W   25335.85581920  .00000001  00000+0 -29915-4 0  9992
2 56066  87.9039 268.0632 0001794 102.9598 257.1734 13.16593353133020
ONEWEB-0578             
1 56067U 23043X   25335.83843068 -.00000047  00000+0 -14637-3 0  9990
2 56067  87.9206 283.3365 0001578  77.1953 282.9357 13.21826800132161
ONEWEB-0579             
1 56068U 23043Y   25335.82854094  .00000013  00000+0 -95190-6 0  9999
2 56068  87.9209 283.3258 0002086  78.6268 281.5100 13.21828965132172
ONEWEB-0581             
1 56069U 23043Z   25335.78616400 -.00000025  00000+0 -98439-4 0  9993
2 56069  87.9035 268.0911 0001844  89.3846 270.7497 13.16593509132983
ONEWEB-0609             
1 56070U 23043AA  25335.81500038  .00000143  00000+0  34625-3 0  9993
2 56070  87.8981 298.6015 0001843  78.8792 281.2546 13.15548332130488
ONEWEB-0613             
1 56071U 23043AB  25335.81024832  .00000133  00000+0  31932-3 0  9994
2 56071  87.8979 298.6149 0002074  78.1052 282.0311 13.15548582130489
ONEWEB-0630             
1 56072U 23043AC  25335.65337503  .00000153  00000+0  37275-3 0  9997
2 56072  87.8979 298.6178 0002088  78.8165 281.3200 13.15549032130456
ONEWEB-0632             
1 56073U 23043AD  25335.64861400  .00000244  00000+0  61310-3 0  9993
2 56073  87.8975 298.6370 0001912  87.9232 272.2117 13.15549391130452
ONEWEB-0633             
1 56074U 23043AE  25335.64228181  .00000131  00000+0  31284-3 0  9999
2 56074  87.8977 298.6015 0002110  73.4613 286.6749 13.15548063130438
ONEWEB-0634             
1 56075U 23043AF  25335.85619426 -.00000130  00000+0 -37899-3 0  9998
2 56075  87.8980 298.6080 0001645  72.0934 288.0376 13.15548424130453
ONEWEB-0635             
1 56076U 23043AG  25335.85143147 -.00000136  00000+0 -39661-3 0  9996
2 56076  87.8976 298.5634 0001872  90.1548 269.9797 13.15549881130483
ONEWEB-0636             
1 56077U 23043AH  25335.84351137 -.00000056  00000+0 -18233-3 0  9999
2 56077  87.8975 298.5827 0001840  88.9083 271.2258 13.15549802130460
ONEWEB-0637             
1 56078U 23043AJ  25335.83718292 -.00000016  00000+0 -75650-4 0  9991
2 56078  87.8979 298.6000 0001553  84.6255 275.5052 13.15549246130487
