[{"OBJECT_NAME":"ONEWEB-0568","OBJECT_ID":"2023-043S","EPOCH":"2025-12-01T19:10:18.683040","MEAN_MOTION":13.16594098,"ECCENTRICITY":0.0001469,"INCLINATION":87.9039,"RA_OF_ASC_NODE":268.0744,"ARG_OF_PERICENTER":74.2115,"MEAN_ANOMALY":285.9178,"EPHEMERIS_TYPE":0,"CLASSIFICATION_TYPE":"U","NORAD_CAT_ID":56062,"ELEMENT_SET_NO":999,"REV_AT_EPOCH":13300,"BSTAR":0.00010762,"MEAN_MOTION_DOT":5.4e-7,"MEAN_MOTION_DDOT":0},{"OBJECT_NAME":"ONEWEB-0574","OBJECT_ID":"2023-043T","EPOCH":"2025-12-01T20:26:17.434752","MEAN_MOTION":13.21824642,"ECCENTRICITY":0.0001818,"INCLINATION":87.9204,"RA_OF_ASC_NODE":283.3238,"ARG_OF_PERICENTER":84.9546,"MEAN_ANOMALY":275.1795,"EPHEMERIS_TYPE":0,"CLASSIFICATION_TYPE":"U","NORAD_CAT_ID":56063,"ELEMENT_SET_NO":999,"REV_AT_EPOCH":13220,"BSTAR":-3.5856e-5,"MEAN_MOTION_DOT":-2.0e-8,"MEAN_MOTION_DDOT":0},{"OBJECT_NAME":"ONEWEB-0575","OBJECT_ID":"2023-043U","EPOCH":"2025-12-01T19:01:11.748576","MEAN_MOTION":13.16594365,"ECCENTRICITY":0.0001557,"INCLINATION":87.9034,"RA_OF_ASC_NODE":268.0762,"ARG_OF_PERICENTER":88.5085,"MEAN_ANOMALY":271.6224,"EPHEMERIS_TYPE":0,"CLASSIFICATION_TYPE":"U","NORAD_CAT_ID":56064,"ELEMENT_SET_NO":999,"REV_AT_EPOCH":13299,"BSTAR":0.00013045,"MEAN_MOTION_DOT":6.3e-7,"MEAN_MOTION_DDOT":0},{"OBJECT_NAME":"ONEWEB-0576","OBJECT_ID":"2023-043V","EPOCH":"2025-12-01T20:23:15.472032","MEAN_MOTION":13.1658972,"ECCENTRICITY":0.0001615,"INCLINATION":87.904,"RA_OF_ASC_NODE":268.0652,"ARG_OF_PERICENTER":82.7776,"MEAN_ANOMALY":277.3538,"EPHEMERIS_TYPE":0,"CLASSIFICATION_TYPE":"U","NORAD_CAT_ID":56065,"ELEMENT_SET_NO":999,"REV_AT_EPOCH":13299,"BSTAR":0.00054074,"MEAN_MOTION_DOT":2.2e-6,"MEAN_MOTION_DDOT":0},{"OBJECT_NAME":"ONEWEB-0577","OBJECT_ID":"2023-043W","EPOCH":"2025-12-01T20:32:22.778880","MEAN_MOTION":13.16593353,"ECCENTRICITY":0.0001794,"INCLINATION":87.9039,"RA_OF_ASC_NODE":268.0632,"ARG_OF_PERICENTER":102.9598,"MEAN_ANOMALY":257.1734,"EPHEMERIS_TYPE":0,"CLASSIFICATION_TYPE":"U","NORAD_CAT_ID":56066,"ELEMENT_SET_NO":999,"REV_AT_EPOCH":13302,"BSTAR":-2.9915e-5,"MEAN_MOTION_DOT":1.0e-8,"MEAN_MOTION_DDOT":0},{"OBJECT_NAME":"ONEWEB-0578","OBJECT_ID":"2023-043X","EPOCH":"2025-12-01T20:07:20.410752","MEAN_MOTION":13.218268,"ECCENTRICITY":0.0001578,"INCLINATION":87.9206,"RA_OF_ASC_NODE":283.3365,"ARG_OF_PERICENTER":77.1953,"MEAN_ANOMALY":282.9357,"EPHEMERIS_TYPE":0,"CLASSIFICATION_TYPE":"U","NORAD_CAT_ID":56067,"ELEMENT_SET_NO":999,"REV_AT_EPOCH":13216,"BSTAR":-0.00014637,"MEAN_MOTION_DOT":-4.7e-7,"MEAN_MOTION_DDOT":0},{"OBJECT_NAME":"ONEWEB-0579","OBJECT_ID":"2023-043Y","EPOCH":"2025-12-01T19:53:05.937216","MEAN_MOTION":13.21828965,"ECCENTRICITY":0.0002086,"INCLINATION":87.9209,"RA_OF_ASC_NODE":283.3258,"ARG_OF_PERICENTER":78.6268,"MEAN_ANOMALY":281.51,"EPHEMERIS_TYPE":0,"CLASSIFICATION_TYPE":"U","NORAD_CAT_ID":56068,"ELEMENT_SET_NO":999,"REV_AT_EPOCH":13217,"BSTAR":-9.519e-7,"MEAN_MOTION_DOT":1.3e-7,"MEAN_MOTION_DDOT":0},{"OBJECT_NAME":"ONEWEB-0581","OBJECT_ID":"2023-043Z","EPOCH":"2025-12-01T18:52:04.569600","MEAN_MOTION":13.16593509,"ECCENTRICITY":0.0001844,"INCLINATION":87.9035,"RA_OF_ASC_NODE":268.0911,"ARG_OF_PERICENTER":89.3846,"MEAN_ANOMALY":270.7497,"EPHEMERIS_TYPE":0,"CLASSIFICATION_TYPE":"U","NORAD_CAT_ID":56069,"ELEMENT_SET_NO":999,"REV_AT_EPOCH":13298,"BSTAR":-9.8439e-5,"MEAN_MOTION_DOT":-2.5e-7,"MEAN_MOTION_DDOT":0},{"OBJECT_NAME":"ONEWEB-0609","OBJECT_ID":"2023-043AA","EPOCH":"2025-12-01T19:33:36.032832","MEAN_MOTION":13.15548332,"ECCENTRICITY":0.0001843,"INCLINATION":87.8981,"RA_OF_ASC_NODE":298.6015,"ARG_OF_PERICENTER":78.8792,"MEAN_ANOMALY":281.2546,"EPHEMERIS_TYPE":0,"CLASSIFICATION_TYPE":"U","NORAD_CAT_ID":56070,"ELEMENT_SET_NO":999,"REV_AT_EPOCH":13048,"BSTAR":0.00034625,"MEAN_MOTION_DOT":1.43e-6,"MEAN_MOTION_DDOT":0},{"OBJECT_NAME":"ONEWEB-0613","OBJECT_ID":"2023-043AB","EPOCH":"2025-12-01T19:26:45.454848","MEAN_MOTION":13.15548582,"ECCENTRICITY":0.0002074,"INCLINATION":87.8979,"RA_OF_ASC_NODE":298.6149,"ARG_OF_PERICENTER":78.1052,"MEAN_ANOMALY":282.0311,"EPHEMERIS_TYPE":0,"CLASSIFICATION_TYPE":"U","NORAD_CAT_ID":56071,"ELEMENT_SET_NO":999,"REV_AT_EPOCH":13048,"BSTAR":0.00031932,"MEAN_MOTION_DOT":1.33e-6,"MEAN_MOTION_DDOT":0},{"OBJECT_NAME":"ONEWEB-0630","OBJECT_ID":"2023-043AC","EPOCH":"2025-12-01T15:40:51.602592","MEAN_MOTION":13.15549032,"ECCENTRICITY":0.0002088,"INCLINATION":87.8979,"RA_OF_ASC_NODE":298.6178,"ARG_OF_PERICENTER":78.8165,"MEAN_ANOMALY":281.32,"EPHEMERIS_TYPE":0,"CLASSIFICATION_TYPE":"U","NORAD_CAT_ID":56072,"ELEMENT_SET_NO":999,"REV_AT_EPOCH":13045,"BSTAR":0.00037275,"MEAN_MOTION_DOT":1.53e-6,"MEAN_MOTION_DDOT":0},{"OBJECT_NAME":"ONEWEB-0632","OBJECT_ID":"2023-043AD","EPOCH":"2025-12-01T15:34:00.249600","MEAN_MOTION":13.15549391,"ECCENTRICITY":0.0001912,"INCLINATION":87.8975,"RA_OF_ASC_NODE":298.637,"ARG_OF_PERICENTER":87.9232,"MEAN_ANOMALY":272.2117,"EPHEMERIS_TYPE":0,"CLASSIFICATION_TYPE":"U","NORAD_CAT_ID":56073,"ELEMENT_SET_NO":999,"REV_AT_EPOCH":13045,"BSTAR":0.0006131,"MEAN_MOTION_DOT":2.44e-6,"MEAN_MOTION_DDOT":0},{"OBJECT_NAME":"ONEWEB-0633","OBJECT_ID":"2023-043AE","EPOCH":"2025-12-01T15:24:53.148384","MEAN_MOTION":13.15548063,"ECCENTRICITY":0.000211,"INCLINATION":87.8977,"RA_OF_ASC_NODE":298.6015,"ARG_OF_PERICENTER":73.4613,"MEAN_ANOMALY":286.6749,"EPHEMERIS_TYPE":0,"CLASSIFICATION_TYPE":"U","NORAD_CAT_ID":56074,"ELEMENT_SET_NO":999,"REV_AT_EPOCH":13043,"BSTAR":0.00031284,"MEAN_MOTION_DOT":1.31e-6,"MEAN_MOTION_DDOT":0},{"OBJECT_NAME":"ONEWEB-0634","OBJECT_ID":"2023-043AF","EPOCH":"2025-12-01T20:32:55.184064","MEAN_MOTION":13.15548424,"ECCENTRICITY":0.0001645,"INCLINATION":87.898,"RA_OF_ASC_NODE":298.608,"ARG_OF_PERICENTER":72.0934,"MEAN_ANOMALY":288.0376,"EPHEMERIS_TYPE":0,"CLASSIFICATION_TYPE":"U","NORAD_CAT_ID":56075,"ELEMENT_SET_NO":999,"REV_AT_EPOCH":13045,"BSTAR":-0.00037899,"MEAN_MOTION_DOT":-1.3e-6,"MEAN_MOTION_DDOT":0},{"OBJECT_NAME":"ONEWEB-0635","OBJECT_ID":"2023-043AG","EPOCH":"2025-12-01T20:26:03.679008","MEAN_MOTION":13.15549881,"ECCENTRICITY":0.0001872,"INCLINATION":87.8976,"RA_OF_ASC_NODE":298.5634,"ARG_OF_PERICENTER":90.1548,"MEAN_ANOMALY":269.9797,"EPHEMERIS_TYPE":0,"CLASSIFICATION_TYPE":"U","NORAD_CAT_ID":56076,"ELEMENT_SET_NO":999,"REV_AT_EPOCH":13048,"BSTAR":-0.00039661,"MEAN_MOTION_DOT":-1.36e-6,"MEAN_MOTION_DDOT":0},{"OBJECT_NAME":"ONEWEB-0636","OBJECT_ID":"2023-043AH","EPOCH":"2025-12-01T20:14:39.382368","MEAN_MOTION":13.15549802,"ECCENTRICITY":0.000184,"INCLINATION":87.8975,"RA_OF_ASC_NODE":298.5827,"ARG_OF_PERICENTER":88.9083,"MEAN_ANOMALY":271.2258,"EPHEMERIS_TYPE":0,"CLASSIFICATION_TYPE":"U","NORAD_CAT_ID":56077,"ELEMENT_SET_NO":999,"REV_AT_EPOCH":13046,"BSTAR":-0.00018233,"MEAN_MOTION_DOT":-5.6e-7,"MEAN_MOTION_DDOT":0},{"OBJECT_NAME":"ONEWEB-0637","OBJECT_ID":"2023-043AJ","EPOCH":"2025-12-01T20:05:32.604288","MEAN_MOTION":13.15549246,"ECCENTRICITY":0.0001553,"INCLINATION":87.8979,"RA_OF_ASC_NODE":298.6,"ARG_OF_PERICENTER":84.6255,"MEAN_ANOMALY":275.5052,"EPHEMERIS_TYPE":0,"CLASSIFICATION_TYPE":"U","NORAD_CAT_ID":56078,"ELEMENT_SET_NO":999,"REV_AT_EPOCH":13048,"BSTAR":-7.565e-5,"MEAN_MOTION_DOT":-1.6e-7,"MEAN_MOTION_DDOT":0}]
